H1 CPF 01  gfz 2022 03 26 01  5851 tandemx   
H2 1003001  6202 36605    2022 03 26 00 59 42 2022 03 31 00 00 42   120 1 1  0 0 0
H9
10 0 59664  86382.000000  0     200294.839   6617870.892  -1913775.513
10 0 59665    102.000000  0     368766.632   6303862.884  -2763352.237
10 0 59665    222.000000  0     524329.786   5877141.079  -3564423.643
10 0 59665    342.000000  0     662378.710   5345515.850  -4302992.317
10 0 59665    462.000000  0     778771.394   4718688.107  -4966188.321
10 0 59665    582.000000  0     869931.769   4008060.076  -5542488.119
10 0 59665    702.000000  0     932937.794   3226517.788  -6021906.456
10 0 59665    822.000000  0     965593.293   2388189.774  -6396159.146
10 0 59665    942.000000  0     966483.139   1508187.847  -6658793.874
10 0 59665   1062.000000  0     935010.328    602335.987  -6805290.797
10 0 59665   1182.000000  0     871414.955   -313110.548  -6833132.387
10 0 59665   1302.000000  0     776774.682  -1221751.452  -6741841.320
10 0 59665   1422.000000  0     652986.497  -2107327.351  -6532985.994
10 0 59665   1542.000000  0     502731.035  -2954001.961  -6210157.308
10 0 59665   1662.000000  0     329418.465  -3746641.356  -5778915.883
10 0 59665   1782.000000  0     137117.250  -4471083.139  -5246704.840
10 0 59665   1902.000000  0     -69532.386  -5114390.780  -4622732.734
10 0 59665   2022.000000  0    -285420.412  -5665090.695  -3917825.962
10 0 59665   2142.000000  0    -505081.969  -6113386.433  -3144250.510
10 0 59665   2262.000000  0    -722823.138  -6451344.310  -2315505.723
10 0 59665   2382.000000  0    -932855.019  -6673047.289  -1446092.800
10 0 59665   2502.000000  0   -1129432.714  -6774711.459   -551260.040
10 0 59665   2622.000000  0   -1306995.841  -6754760.737    353268.971
10 0 59665   2742.000000  0   -1460307.256  -6613858.017   1251578.259
10 0 59665   2862.000000  0   -1584586.597  -6354891.710   2127848.111
10 0 59665   2982.000000  0   -1675634.470  -5982916.862   2966643.166
10 0 59665   3102.000000  0   -1729944.181  -5505052.080   3753192.660
10 0 59665   3222.000000  0   -1744797.444  -4930335.582   4473656.365
10 0 59665   3342.000000  0   -1718342.561  -4269545.376   5115370.111
10 0 59665   3462.000000  0   -1649654.307  -3534988.556   5667069.043
10 0 59665   3582.000000  0   -1538772.672  -2740261.739   6119083.312
10 0 59665   3702.000000  0   -1386719.422  -1899991.625   6463501.221
10 0 59665   3822.000000  0   -1195493.731  -1029562.084   6694301.513
10 0 59665   3942.000000  0    -968047.769   -144829.500   6807453.290
10 0 59665   4062.000000  0    -708241.942    738166.524   6800981.317
10 0 59665   4182.000000  0    -420779.261   1603493.350   6674999.079
10 0 59665   4302.000000  0    -111120.049   2435612.634   6431706.964
10 0 59665   4422.000000  0     214621.268   3219659.259   6075355.885
10 0 59665   4542.000000  0     549795.049   3941708.103   5612177.709
10 0 59665   4662.000000  0     887349.635   4589025.109   5050281.872
10 0 59665   4782.000000  0    1219977.150   5150297.766   4399519.259
10 0 59665   4902.000000  0    1540268.090   5615840.158   3671313.711
10 0 59665   5022.000000  0    1840872.310   5977769.339   2878467.151
10 0 59665   5142.000000  0    2114665.144   6230150.092   2034933.088
10 0 59665   5262.000000  0    2354909.181   6369099.979   1155566.541
10 0 59665   5382.000000  0    2555411.829   6392852.744    255855.140
10 0 59665   5502.000000  0    2710672.272   6301778.635   -648361.079
10 0 59665   5622.000000  0    2816015.765   6098363.037  -1541176.592
10 0 59665   5742.000000  0    2867711.550   5787142.417  -2406907.927
10 0 59665   5862.000000  0    2863071.237   5374600.181  -3230375.806
10 0 59665   5982.000000  0    2800525.095   4869023.891  -3997176.021
10 0 59665   6102.000000  0    2679673.998   4280328.707  -4693931.407
10 0 59665   6222.000000  0    2501316.651   3619853.365  -5308521.202
10 0 59665   6342.000000  0    2267452.805   2900133.918  -5830284.402
10 0 59665   6462.000000  0    1981262.487   2134659.794  -6250195.349
10 0 59665   6582.000000  0    1647061.438   1337617.735  -6561007.937
10 0 59665   6702.000000  0    1270235.724    523629.891  -6757368.923
10 0 59665   6822.000000  0     857154.905   -292510.652  -6835901.455
10 0 59665   6942.000000  0     415064.622  -1096103.822  -6795256.406
10 0 59665   7062.000000  0     -48037.870  -1872800.422  -6636131.271
10 0 59665   7182.000000  0    -523543.863  -2608850.603  -6361260.078
10 0 59665   7302.000000  0   -1002389.220  -3291343.366  -5975373.034
10 0 59665   7422.000000  0   -1475222.355  -3908430.952  -5485122.820
10 0 59665   7542.000000  0   -1932582.294  -4449535.274  -4898981.578
10 0 59665   7662.000000  0   -2365085.033  -4905534.825  -4227106.638
10 0 59665   7782.000000  0   -2763614.550  -5268926.257  -3481174.584
10 0 59665   7902.000000  0   -3119513.733  -5533956.826  -2674186.546
10 0 59665   8022.000000  0   -3424771.597  -5696725.486  -1820247.262
10 0 59665   8142.000000  0   -3672202.852  -5755249.498   -934320.148
10 0 59665   8262.000000  0   -3855614.226  -5709493.386    -31962.031
10 0 59665   8382.000000  0   -3969952.652  -5561358.592    870956.214
10 0 59665   8502.000000  0   -4011431.980  -5314634.011   1758537.243
10 0 59665   8622.000000  0   -3977634.189  -4974907.411   2615146.799
10 0 59665   8742.000000  0   -3867582.375  -4549440.589   3425697.292
10 0 59665   8862.000000  0   -3681784.377  -4047012.486   4175920.247
10 0 59665   8982.000000  0   -3422245.435  -3477733.204   4852622.164
10 0 59665   9102.000000  0   -3092450.072  -2852833.901   5443917.175
10 0 59665   9222.000000  0   -2697314.316  -2184439.577   5939433.405
10 0 59665   9342.000000  0   -2243109.449  -1485329.836   6330490.983
10 0 59665   9462.000000  0   -1737359.173   -768690.862   6610250.429
10 0 59665   9582.000000  0   -1188710.218    -47862.973   6773825.798
10 0 59665   9702.000000  0    -606783.040    663906.989   6818362.378
10 0 59665   9822.000000  0      -2003.521   1353708.061   6743084.191
10 0 59665   9942.000000  0     614583.640   2009199.218   6549307.044
10 0 59665  10062.000000  0    1231516.419   2618830.298   6240416.445
10 0 59665  10182.000000  0    1837127.670   3172045.488   5821811.814
10 0 59665  10302.000000  0    2419765.230   3659468.599   5300818.338
10 0 59665  10422.000000  0    2968017.671   4073066.800   4686565.214
10 0 59665  10542.000000  0    3470940.433   4406287.669   3989829.690
10 0 59665  10662.000000  0    3918275.872   4654167.635   3222852.888
10 0 59665  10782.000000  0    4300668.548   4813412.579   2399127.345
10 0 59665  10902.000000  0    4609863.902   4882442.082   1533154.555
10 0 59665  11022.000000  0    4838886.274   4861400.269    640186.679
10 0 59665  11142.000000  0    4982196.879   4752132.329   -264050.143
10 0 59665  11262.000000  0    5035819.950   4558123.852  -1163642.856
10 0 59665  11382.000000  0    4997437.809   4284407.214  -2042779.250
10 0 59665  11502.000000  0    4866453.615   3937438.170  -2886032.749
10 0 59665  11622.000000  0    4644018.849   3524945.161  -3678638.110
10 0 59665  11742.000000  0    4333024.902   3055756.212  -4406751.809
10 0 59665  11862.000000  0    3938060.470   2539607.327  -5057691.836
10 0 59665  11982.000000  0    3465337.092   1986937.282  -5620152.694
10 0 59665  12102.000000  0    2922584.087   1408674.686  -6084393.175
10 0 59665  12222.000000  0    2318915.329    816021.710  -6442394.045
10 0 59665  12342.000000  0    1664672.334    220239.064  -6687984.153
10 0 59665  12462.000000  0     971247.641   -367563.744  -6816936.578
10 0 59665  12582.000000  0     250887.656   -936631.552  -6827034.685
10 0 59665  12702.000000  0    -483519.752  -1476755.226  -6718104.026
10 0 59665  12822.000000  0   -1218669.343  -1978449.260  -6492015.229
10 0 59665  12942.000000  0   -1941074.020  -2433115.196  -6152656.279
10 0 59665  13062.000000  0   -2637306.631  -2833187.300  -5705872.260
10 0 59665  13182.000000  0   -3294245.129  -3172258.575  -5159375.715
10 0 59665  13302.000000  0   -3899319.840  -3445186.804  -4522625.918
10 0 59665  13422.000000  0   -4440756.288  -3648176.333  -3806675.552
10 0 59665  13542.000000  0   -4907808.751  -3778834.212  -3023988.551
10 0 59665  13662.000000  0   -5290980.294  -3836199.587  -2188229.756
10 0 59665  13782.000000  0   -5582223.145  -3820744.504  -1314028.962
10 0 59665  13902.000000  0   -5775114.138  -3734345.563   -416724.087
10 0 59665  14022.000000  0   -5865000.759  -3580226.899    487912.116
10 0 59665  14142.000000  0   -5849113.865  -3362875.744   1383956.707
10 0 59665  14262.000000  0   -5726641.765  -3087931.195   2255627.106
10 0 59665  14382.000000  0   -5498763.659  -2762048.911   3087567.966
10 0 59665  14502.000000  0   -5168643.625  -2392747.459   3865129.059
10 0 59665  14622.000000  0   -4741383.854  -1988237.963   4574629.818
10 0 59665  14742.000000  0   -4223938.510  -1557242.174   5203601.608
10 0 59665  14862.000000  0   -3624993.336  -1108805.572   5741004.969
10 0 59665  14982.000000  0   -2954813.159   -652108.075   6177421.181
10 0 59665  15102.000000  0   -2225058.332   -196275.480   6505213.492
10 0 59665  15222.000000  0   -1448575.071    249802.594   6718653.701
10 0 59665  15342.000000  0    -639166.286    677644.014   6814015.699
10 0 59665  15462.000000  0     188654.420   1079334.230   6789636.439
10 0 59665  15582.000000  0    1019922.387   1447672.130   6645943.084
10 0 59665  15702.000000  0    1839491.767   1776299.509   6385445.900
10 0 59665  15822.000000  0    2632310.651   2059810.896   6012696.689
10 0 59665  15942.000000  0    3383698.052   2293843.153   5534214.949
10 0 59665  16062.000000  0    4079619.053   2475143.447   4958379.586
10 0 59665  16182.000000  0    4706950.612   2601614.568   4295287.886
10 0 59665  16302.000000  0    5253735.790   2672337.070   3556584.807
10 0 59665  16422.000000  0    5709422.418   2687566.012   2755259.305
99
